ORBCOMM FM05 [-]        
1 25117U 97084F   24030.06774504  .00001833  00000+0  59581-3 0  9991
2 25117  45.0141 260.9209 0002021 207.8369 152.2373 14.42086036367745
ORBCOMM FM06 [+]        
1 25118U 97084G   24030.74097201  .00002012  00000+0  64991-3 0  9990
2 25118  45.0135 257.8891 0001364 227.5662 241.1081 14.42076089368770
ORBCOMM FM07 [-]        
1 25119U 97084H   24029.73627649  .00001921  00000+0  62327-3 0  9992
2 25119  45.0130 263.1667 0002690 193.2786 166.7993 14.42002845368601
ORBCOMM FM03 [-]        
1 25158U 98007B   24030.36509537  .00001745  00000+0  69324-3 0  9995
2 25158 107.9748 182.7015 0045403  46.8100 313.6819 14.31771171351865
ORBCOMM FM04 [+]        
1 25159U 98007C   24030.37181364  .00001652  00000+0  65697-3 0  9997
2 25159 107.9735 185.5851 0040995  44.3505 316.0906 14.32026707352037
ORBCOMM FM17 [-]        
1 25413U 98046A   24030.32893887  .00001494  00000+0  59469-3 0  9992
2 25413  44.9948 111.0453 0003841 222.3223 137.7327 14.32757172330850
ORBCOMM FM18 [-]        
1 25414U 98046B   24030.44383831  .00001907  00000+0  70698-3 0  9995
2 25414  44.9946  39.6933 0006248 272.0287  87.9844 14.35392605331796
ORBCOMM FM19 [+]        
1 25415U 98046C   24030.05596066  .00001773  00000+0  66265-3 0  9995
2 25415  44.9953  42.8012 0005085 267.6505 121.2106 14.35233770331701
